CCSDS_OMM_VERS = 2.0
CREATION_DATE  = 
ORIGINATOR     = 

OBJECT_NAME    = SL-14 R/B
OBJECT_ID      = 1991-042B
CENTER_NAME    = EARTH
REF_FRAME      = TEME
TIME_SYSTEM    = UTC
MEAN_ELEMENT_THEORY = SGP/SGP4

EPOCH          = 2025-12-22T20:15:16.718400
MEAN_MOTION    = 14.81747517
ECCENTRICITY   = .0018234
INCLINATION    = 82.4935
RA_OF_ASC_NODE = 292.2484
ARG_OF_PERICENTER = 130.0404
MEAN_ANOMALY   = 230.2413

EPHEMERIS_TYPE = 0
CLASSIFICATION_TYPE = U
NORAD_CAT_ID   = 21423
ELEMENT_SET_NO = 999
REV_AT_EPOCH   = 84169
BSTAR          = .49057E-4
MEAN_MOTION_DOT = .411E-5
MEAN_MOTION_DDOT = 0

CCSDS_OMM_VERS = 2.0
CREATION_DATE  = 
ORIGINATOR     = 

OBJECT_NAME    = ERS-1
OBJECT_ID      = 1991-050A
CENTER_NAME    = EARTH
REF_FRAME      = TEME
TIME_SYSTEM    = UTC
MEAN_ELEMENT_THEORY = SGP/SGP4

EPOCH          = 2025-12-21T18:34:18.873120
MEAN_MOTION    = 14.39371080
ECCENTRICITY   = .003299
INCLINATION    = 98.7900
RA_OF_ASC_NODE = 7.0544
ARG_OF_PERICENTER = 74.0260
MEAN_ANOMALY   = 286.4557

EPHEMERIS_TYPE = 0
CLASSIFICATION_TYPE = U
NORAD_CAT_ID   = 21574
ELEMENT_SET_NO = 999
REV_AT_EPOCH   = 80452
BSTAR          = .91497104E-4
MEAN_MOTION_DOT = .24E-5
MEAN_MOTION_DDOT = 0

CCSDS_OMM_VERS = 2.0
CREATION_DATE  = 
ORIGINATOR     = 

OBJECT_NAME    = ARIANE 40 R/B
OBJECT_ID      = 1991-050F
CENTER_NAME    = EARTH
REF_FRAME      = TEME
TIME_SYSTEM    = UTC
MEAN_ELEMENT_THEORY = SGP/SGP4

EPOCH          = 2025-12-22T13:33:13.309632
MEAN_MOTION    = 14.42820879
ECCENTRICITY   = .00022055
INCLINATION    = 98.2151
RA_OF_ASC_NODE = 46.6402
ARG_OF_PERICENTER = 325.5531
MEAN_ANOMALY   = 34.5517

EPHEMERIS_TYPE = 0
CLASSIFICATION_TYPE = U
NORAD_CAT_ID   = 21610
ELEMENT_SET_NO = 999
REV_AT_EPOCH   = 80787
BSTAR          = .10096133E-3
MEAN_MOTION_DOT = .295E-5
MEAN_MOTION_DDOT = 0

CCSDS_OMM_VERS = 2.0
CREATION_DATE  = 
ORIGINATOR     = 

OBJECT_NAME    = INTERCOSMOS 25
OBJECT_ID      = 1991-086A
CENTER_NAME    = EARTH
REF_FRAME      = TEME
TIME_SYSTEM    = UTC
MEAN_ELEMENT_THEORY = SGP/SGP4

EPOCH          = 2025-12-22T11:02:33.422784
MEAN_MOTION    = 12.11765115
ECCENTRICITY   = .1486363
INCLINATION    = 82.6074
RA_OF_ASC_NODE = 356.6954
ARG_OF_PERICENTER = 283.4379
MEAN_ANOMALY   = 60.5730

EPHEMERIS_TYPE = 0
CLASSIFICATION_TYPE = U
NORAD_CAT_ID   = 21819
ELEMENT_SET_NO = 999
REV_AT_EPOCH   = 48733
BSTAR          = .43268277E-3
MEAN_MOTION_DOT = .2173E-4
MEAN_MOTION_DDOT = 0

CCSDS_OMM_VERS = 2.0
CREATION_DATE  = 
ORIGINATOR     = 

OBJECT_NAME    = SL-8 R/B
OBJECT_ID      = 1992-008B
CENTER_NAME    = EARTH
REF_FRAME      = TEME
TIME_SYSTEM    = UTC
MEAN_ELEMENT_THEORY = SGP/SGP4

EPOCH          = 2025-12-22T20:38:28.845312
MEAN_MOTION    = 13.75961193
ECCENTRICITY   = .0034546
INCLINATION    = 82.9270
RA_OF_ASC_NODE = 324.9184
ARG_OF_PERICENTER = 351.7249
MEAN_ANOMALY   = 70.7101

EPHEMERIS_TYPE = 0
CLASSIFICATION_TYPE = U
NORAD_CAT_ID   = 21876
ELEMENT_SET_NO = 999
REV_AT_EPOCH   = 69885
BSTAR          = .1039E-3
MEAN_MOTION_DOT = .116E-5
MEAN_MOTION_DDOT = 0

CCSDS_OMM_VERS = 2.0
CREATION_DATE  = 
ORIGINATOR     = 

OBJECT_NAME    = SL-8 R/B
OBJECT_ID      = 1992-020B
CENTER_NAME    = EARTH
REF_FRAME      = TEME
TIME_SYSTEM    = UTC
MEAN_ELEMENT_THEORY = SGP/SGP4

EPOCH          = 2025-12-22T13:57:34.218720
MEAN_MOTION    = 13.75529557
ECCENTRICITY   = .00295315
INCLINATION    = 82.9296
RA_OF_ASC_NODE = 211.0092
ARG_OF_PERICENTER = 150.8980
MEAN_ANOMALY   = 237.8125

EPHEMERIS_TYPE = 0
CLASSIFICATION_TYPE = U
NORAD_CAT_ID   = 21938
ELEMENT_SET_NO = 999
REV_AT_EPOCH   = 69053
BSTAR          = .12317995E-3
MEAN_MOTION_DOT = .134E-5
MEAN_MOTION_DDOT = 0

CCSDS_OMM_VERS = 2.0
CREATION_DATE  = 
ORIGINATOR     = 

OBJECT_NAME    = USA 81
OBJECT_ID      = 1992-023A
CENTER_NAME    = EARTH
REF_FRAME      = TEME
TIME_SYSTEM    = UTC
MEAN_ELEMENT_THEORY = SGP/SGP4

EPOCH          = 2025-12-22T11:09:43.229952
MEAN_MOTION    = 14.32330278
ECCENTRICITY   = .00011008
INCLINATION    = 85.0079
RA_OF_ASC_NODE = 175.9670
ARG_OF_PERICENTER = 81.6074
MEAN_ANOMALY   = 278.5244

EPHEMERIS_TYPE = 0
CLASSIFICATION_TYPE = U
NORAD_CAT_ID   = 21949
ELEMENT_SET_NO = 999
REV_AT_EPOCH   = 8373
BSTAR          = .58171553E-4
MEAN_MOTION_DOT = .177E-5
MEAN_MOTION_DDOT = 0

CCSDS_OMM_VERS = 2.0
CREATION_DATE  = 
ORIGINATOR     = 

OBJECT_NAME    = COSMOS 2219
OBJECT_ID      = 1992-076A
CENTER_NAME    = EARTH
REF_FRAME      = TEME
TIME_SYSTEM    = UTC
MEAN_ELEMENT_THEORY = SGP/SGP4

EPOCH          = 2025-12-22T20:10:06.029184
MEAN_MOTION    = 14.14066072
ECCENTRICITY   = .0019282
INCLINATION    = 71.0575
RA_OF_ASC_NODE = 178.7175
ARG_OF_PERICENTER = 313.0663
MEAN_ANOMALY   = 46.8844

EPHEMERIS_TYPE = 0
CLASSIFICATION_TYPE = U
NORAD_CAT_ID   = 22219
ELEMENT_SET_NO = 999
REV_AT_EPOCH   = 70751
BSTAR          = .16606E-3
MEAN_MOTION_DOT = .269E-5
MEAN_MOTION_DDOT = 0

CCSDS_OMM_VERS = 2.0
CREATION_DATE  = 
ORIGINATOR     = 

OBJECT_NAME    = SL-16 R/B
OBJECT_ID      = 1992-076B
CENTER_NAME    = EARTH
REF_FRAME      = TEME
TIME_SYSTEM    = UTC
MEAN_ELEMENT_THEORY = SGP/SGP4

EPOCH          = 2025-12-22T11:17:53.583648
MEAN_MOTION    = 14.16844519
ECCENTRICITY   = .00142968
INCLINATION    = 71.0008
RA_OF_ASC_NODE = 351.0332
ARG_OF_PERICENTER = 221.0022
MEAN_ANOMALY   = 254.6556

EPHEMERIS_TYPE = 0
CLASSIFICATION_TYPE = U
NORAD_CAT_ID   = 22220
ELEMENT_SET_NO = 999
REV_AT_EPOCH   = 71089
BSTAR          = .12276436E-3
MEAN_MOTION_DOT = .198E-5
MEAN_MOTION_DDOT = 0

CCSDS_OMM_VERS = 2.0
CREATION_DATE  = 
ORIGINATOR     = 

OBJECT_NAME    = COSMOS 2221
OBJECT_ID      = 1992-080A
CENTER_NAME    = EARTH
REF_FRAME      = TEME
TIME_SYSTEM    = UTC
MEAN_ELEMENT_THEORY = SGP/SGP4

EPOCH          = 2025-12-22T10:49:23.074464
MEAN_MOTION    = 14.95796314
ECCENTRICITY   = .00162829
INCLINATION    = 82.5038
RA_OF_ASC_NODE = 353.0296
ARG_OF_PERICENTER = 91.9247
MEAN_ANOMALY   = 268.3840

EPHEMERIS_TYPE = 0
CLASSIFICATION_TYPE = U
NORAD_CAT_ID   = 22236
ELEMENT_SET_NO = 999
REV_AT_EPOCH   = 76924
BSTAR          = .16476743E-3
MEAN_MOTION_DOT = .1868E-4
MEAN_MOTION_DDOT = 0

CCSDS_OMM_VERS = 2.0
CREATION_DATE  = 
ORIGINATOR     = 

OBJECT_NAME    = SL-16 R/B
OBJECT_ID      = 1992-093B
CENTER_NAME    = EARTH
REF_FRAME      = TEME
TIME_SYSTEM    = UTC
MEAN_ELEMENT_THEORY = SGP/SGP4

EPOCH          = 2025-12-22T13:36:58.904352
MEAN_MOTION    = 14.15435146
ECCENTRICITY   = .00024419
INCLINATION    = 71.0206
RA_OF_ASC_NODE = 166.1656
ARG_OF_PERICENTER = 39.2763
MEAN_ANOMALY   = 320.8536

EPHEMERIS_TYPE = 0
CLASSIFICATION_TYPE = U
NORAD_CAT_ID   = 22285
ELEMENT_SET_NO = 999
REV_AT_EPOCH   = 70224
BSTAR          = .37176716E-4
MEAN_MOTION_DOT = .25E-6
MEAN_MOTION_DDOT = 0

CCSDS_OMM_VERS = 2.0
CREATION_DATE  = 
ORIGINATOR     = 

OBJECT_NAME    = COSMOS 2228
OBJECT_ID      = 1992-094A
CENTER_NAME    = EARTH
REF_FRAME      = TEME
TIME_SYSTEM    = UTC
MEAN_ELEMENT_THEORY = SGP/SGP4

EPOCH          = 2025-12-22T20:26:51.911808
MEAN_MOTION    = 14.96772874
ECCENTRICITY   = .0017289
INCLINATION    = 82.5185
RA_OF_ASC_NODE = 310.8584
ARG_OF_PERICENTER = 195.3156
MEAN_ANOMALY   = 164.7546

EPHEMERIS_TYPE = 0
CLASSIFICATION_TYPE = U
NORAD_CAT_ID   = 22286
ELEMENT_SET_NO = 999
REV_AT_EPOCH   = 76456
BSTAR          = .1707E-3
MEAN_MOTION_DOT = .1984E-4
MEAN_MOTION_DDOT = 0

