SL-14 R/B               
1 21423U 91042B   25356.84394350  .00000411  00000+0  49057-4 0  9999
2 21423  82.4935 292.2484 0018234 130.0404 230.2413 14.81747517841694
ERS-1                   
1 21574U 91050A   25355.77382955  .00000240  00000+0  91497-4 0  9999
2 21574  98.7900   7.0544 0032990  74.0260 286.4557 14.39371080804528
ARIANE 40 R/B           
1 21610U 91050F   25356.56473738  .00000295  00000+0  10096-3 0  9993
2 21610  98.2151  46.6402 0002205 325.5531  34.5517 14.42820879807873
INTERCOSMOS 25          
1 21819U 91086A   25356.46010906  .00002173  00000+0  43268-3 0  9990
2 21819  82.6074 356.6954 1486363 283.4379  60.5730 12.11765115487331
SL-8 R/B                
1 21876U 92008B   25356.86005608  .00000116  00000+0  10390-3 0  9990
2 21876  82.9270 324.9184 0034546 351.7249  70.7101 13.75961193698855
SL-8 R/B                
1 21938U 92020B   25356.58164605  .00000134  00000+0  12318-3 0  9997
2 21938  82.9296 211.0092 0029531 150.8980 237.8125 13.75529557690537
USA 81                  
1 21949U 92023A   25356.46508368  .00000177  00000+0  58172-4 0  9993
2 21949  85.0079 175.9670 0001100  81.6074 278.5244 14.32330278 83735
COSMOS 2219             
1 22219U 92076A   25356.84034756  .00000269  00000+0  16606-3 0  9996
2 22219  71.0575 178.7175 0019282 313.0663  46.8844 14.14066072707518
SL-16 R/B               
1 22220U 92076B   25356.47075907  .00000198  00000+0  12276-3 0  9990
2 22220  71.0008 351.0332 0014296 221.0022 254.6556 14.16844519710895
COSMOS 2221             
1 22236U 92080A   25356.45096151  .00001868  00000+0  16477-3 0  9996
2 22236  82.5038 353.0296 0016282  91.9247 268.3840 14.95796314769240
SL-16 R/B               
1 22285U 92093B   25356.56734843  .00000025  00000+0  37177-4 0  9998
2 22285  71.0206 166.1656 0002441  39.2763 320.8536 14.15435146702245
COSMOS 2228             
1 22286U 92094A   25356.85198972  .00001984  00000+0  17070-3 0  9993
2 22286  82.5185 310.8584 0017289 195.3156 164.7546 14.96772874764563
